[{"OBJECT_NAME":"GAOFEN-14 01","OBJECT_ID":"2020-092A","EPOCH":"2026-03-09T23:18:15.156000","MEAN_MOTION":15.25725011,"ECCENTRICITY":0.0008015,"INCLINATION":97.4817,"RA_OF_ASC_NODE":139.2507,"ARG_OF_PERICENTER":138.8844,"MEAN_ANOMALY":221.2999,"EPHEMERIS_TYPE":0,"CLASSIFICATION_TYPE":"U","NORAD_CAT_ID":47231,"ELEMENT_SET_NO":999,"REV_AT_EPOCH":29270,"BSTAR":0.00022250672,"MEAN_MOTION_DOT":5.605e-5,"MEAN_MOTION_DDOT":0},{"OBJECT_NAME":"STARLINK-30119","OBJECT_ID":"2023-079A","EPOCH":"2026-03-09T22:00:01.999584","MEAN_MOTION":15.19202714,"ECCENTRICITY":0.00015032,"INCLINATION":42.9996,"RA_OF_ASC_NODE":105.4949,"ARG_OF_PERICENTER":287.4614,"MEAN_ANOMALY":161.0846,"EPHEMERIS_TYPE":0,"CLASSIFICATION_TYPE":"U","NORAD_CAT_ID":56823,"ELEMENT_SET_NO":999,"REV_AT_EPOCH":578,"BSTAR":0.053394577,"MEAN_MOTION_DOT":0.01254132,"MEAN_MOTION_DDOT":0}]
